{"type": "FeatureCollection", "features": [ {"type": "Feature", "properties": {"norad_id": 66537, "name": "STARLINK-35582", "group": "last-30-days", "lat": -42.844061419586886, "lon": 31.76323864953504, "alt_km": 346.7526827850952, "timestamp": "2025-12-02T06:27:51.801907+00:00", "meta": {"OBJECT_NAME": "STARLINK-35582", "OBJECT_ID": "2025-265X", "EPOCH": "2025-12-01T20:00:01.999008", "MEAN_MOTION": 15.75026878, "ECCENTRICITY": 0.0001531, "INCLINATION": 42.9998, "RA_OF_ASC_NODE": 118.8465, "ARG_OF_PERICENTER": 268.0773, "MEAN_ANOMALY": 50.8218, "EPHEMERIS_TYPE": 0, "CLASSIFICATION_TYPE": "U", "NORAD_CAT_ID": 66537, "ELEMENT_SET_NO": 999, "REV_AT_EPOCH": 324, "BSTAR": 0.00032085, "MEAN_MOTION_DOT": 0.00049068, "MEAN_MOTION_DDOT": 0}, "tle": {"line1": "1 66537U 25265X   25335.83335647  .00049068  00000+0  32085-3 0  9991", "line2": "2 66537  42.9998 118.8465 0001531 268.0773  50.8218 15.75026878  3248"}}, "geometry": {"type": "Point", "coordinates": [31.76323864953504, -42.844061419586886]}}, {"type": "Feature", "properties": {"norad_id": 66538, "name": "STARLINK-35577", "group": "last-30-days", "lat": -42.687936690827954, "lon": 34.361279998029254, "alt_km": 346.63024525113997, "timestamp": "2025-12-02T06:27:51.801917+00:00", "meta": {"OBJECT_NAME": "STARLINK-35577", "OBJECT_ID": "2025-265Y", "EPOCH": "2025-12-01T20:00:01.999008", "MEAN_MOTION": 15.75023164, "ECCENTRICITY": 0.0001682, "INCLINATION": 42.9999, "RA_OF_ASC_NODE": 118.8415, "ARG_OF_PERICENTER": 266.7301, "MEAN_ANOMALY": 54.0853, "EPHEMERIS_TYPE": 0, "CLASSIFICATION_TYPE": "U", "NORAD_CAT_ID": 66538, "ELEMENT_SET_NO": 999, "REV_AT_EPOCH": 324, "BSTAR": 0.00040411, "MEAN_MOTION_DOT": 0.00062012, "MEAN_MOTION_DDOT": 0}, "tle": {"line1": "1 66538U 25265Y   25335.83335647  .00062012  00000+0  40411-3 0  9998", "line2": "2 66538  42.9999 118.8415 0001682 266.7301  54.0853 15.75023164  3240"}}, "geometry": {"type": "Point", "coordinates": [34.361279998029254, -42.687936690827954]}}, {"type": "Feature", "properties": {"norad_id": 66539, "name": "STARLINK-35697", "group": "last-30-days", "lat": -42.47559238548435, "lon": 36.91832135212387, "alt_km": 346.4928768014606, "timestamp": "2025-12-02T06:27:51.801929+00:00", "meta": {"OBJECT_NAME": "STARLINK-35697", "OBJECT_ID": "2025-265Z", "EPOCH": "2025-12-01T20:00:01.999008", "MEAN_MOTION": 15.75029925, "ECCENTRICITY": 0.0001957, "INCLINATION": 43, "RA_OF_ASC_NODE": 118.8362, "ARG_OF_PERICENTER": 273.4861, "MEAN_ANOMALY": 49.2449, "EPHEMERIS_TYPE": 0, "CLASSIFICATION_TYPE": "U", "NORAD_CAT_ID": 66539, "ELEMENT_SET_NO": 999, "REV_AT_EPOCH": 324, "BSTAR": 0.00018454, "MEAN_MOTION_DOT": 0.00027953, "MEAN_MOTION_DDOT": 0}, "tle": {"line1": "1 66539U 25265Z   25335.83335647  .00027953  00000+0  18454-3 0  9996", "line2": "2 66539  43.0000 118.8362 0001957 273.4861  49.2449 15.75029925  3246"}}, "geometry": {"type": "Point", "coordinates": [36.91832135212387, -42.47559238548435]}}, {"type": "Feature", "properties": {"norad_id": 66540, "name": "STARLINK-35818", "group": "last-30-days", "lat": -42.20199330665656, "lon": 39.49041977697918, "alt_km": 346.68325098466903, "timestamp": "2025-12-02T06:27:51.801941+00:00", "meta": {"OBJECT_NAME": "STARLINK-35818", "OBJECT_ID": "2025-265AA", "EPOCH": "2025-12-01T20:00:01.999008", "MEAN_MOTION": 15.75040653, "ECCENTRICITY": 0.0001644, "INCLINATION": 42.9995, "RA_OF_ASC_NODE": 118.8316, "ARG_OF_PERICENTER": 282.4183, "MEAN_ANOMALY": 42.2301, "EPHEMERIS_TYPE": 0, "CLASSIFICATION_TYPE": "U", "NORAD_CAT_ID": 66540, "ELEMENT_SET_NO": 999, "REV_AT_EPOCH": 324, "BSTAR": 0.00013936, "MEAN_MOTION_DOT": 0.00020984, "MEAN_MOTION_DDOT": 0}, "tle": {"line1": "1 66540U 25265AA  25335.83335647  .00020984  00000+0  13936-3 0  9995", "line2": "2 66540  42.9995 118.8316 0001644 282.4183  42.2301 15.75040653  3249"}}, "geometry": {"type": "Point", "coordinates": [39.49041977697918, -42.20199330665656]}}, {"type": "Feature", "properties": {"norad_id": 66541, "name": "STARLINK-35796", "group": "last-30-days", "lat": -41.87396974696579, "lon": 42.02464835183964, "alt_km": 346.76806518614285, "timestamp": "2025-12-02T06:27:51.801952+00:00", "meta": {"OBJECT_NAME": "STARLINK-35796", "OBJECT_ID": "2025-265AB", "EPOCH": "2025-12-01T20:00:01.999008", "MEAN_MOTION": 15.75068047, "ECCENTRICITY": 0.0001573, "INCLINATION": 42.9998, "RA_OF_ASC_NODE": 118.8271, "ARG_OF_PERICENTER": 279.6509, "MEAN_ANOMALY": 46.9077, "EPHEMERIS_TYPE": 0, "CLASSIFICATION_TYPE": "U", "NORAD_CAT_ID": 66541, "ELEMENT_SET_NO": 999, "REV_AT_EPOCH": 324, "BSTAR": -0.00022106, "MEAN_MOTION_DOT": -0.0003434, "MEAN_MOTION_DDOT": 0}, "tle": {"line1": "1 66541U 25265AB  25335.83335647 -.00034340  00000+0 -22106-3 0  9998", "line2": "2 66541  42.9998 118.8271 0001573 279.6509  46.9077 15.75068047  3242"}}, "geometry": {"type": "Point", "coordinates": [42.02464835183964, -41.87396974696579]}}, {"type": "Feature", "properties": {"norad_id": 66542, "name": "STARLINK-35833", "group": "last-30-days", "lat": -41.49002466869454, "lon": 44.5335903169913, "alt_km": 346.7591520063106, "timestamp": "2025-12-02T06:27:51.801963+00:00", "meta": {"OBJECT_NAME": "STARLINK-35833", "OBJECT_ID": "2025-265AC", "EPOCH": "2025-12-01T20:00:01.999008", "MEAN_MOTION": 15.75071551, "ECCENTRICITY": 0.000158, "INCLINATION": 42.9999, "RA_OF_ASC_NODE": 118.8229, "ARG_OF_PERICENTER": 275.5438, "MEAN_ANOMALY": 52.9311, "EPHEMERIS_TYPE": 0, "CLASSIFICATION_TYPE": "U", "NORAD_CAT_ID": 66542, "ELEMENT_SET_NO": 999, "REV_AT_EPOCH": 324, "BSTAR": -0.00026807, "MEAN_MOTION_DOT": -0.00041511, "MEAN_MOTION_DDOT": 0}, "tle": {"line1": "1 66542U 25265AC  25335.83335647 -.00041511  00000+0 -26807-3 0  9999", "line2": "2 66542  42.9999 118.8229 0001580 275.5438  52.9311 15.75071551  3243"}}, "geometry": {"type": "Point", "coordinates": [44.5335903169913, -41.49002466869454]}}, {"type": "Feature", "properties": {"norad_id": 66543, "name": "STARLINK-35315", "group": "last-30-days", "lat": -41.054513636878816, "lon": 46.99515471030587, "alt_km": 346.7625166546841, "timestamp": "2025-12-02T06:27:51.801972+00:00", "meta": {"OBJECT_NAME": "STARLINK-35315", "OBJECT_ID": "2025-265AD", "EPOCH": "2025-12-01T20:00:01.999008", "MEAN_MOTION": 15.75062842, "ECCENTRICITY": 0.0001525, "INCLINATION": 42.9999, "RA_OF_ASC_NODE": 118.8166, "ARG_OF_PERICENTER": 273.6925, "MEAN_ANOMALY": 56.6894, "EPHEMERIS_TYPE": 0, "CLASSIFICATION_TYPE": "U", "NORAD_CAT_ID": 66543, "ELEMENT_SET_NO": 999, "REV_AT_EPOCH": 313, "BSTAR": -0.00013733, "MEAN_MOTION_DOT": -0.00021541, "MEAN_MOTION_DDOT": 0}, "tle": {"line1": "1 66543U 25265AD  25335.83335647 -.00021541  00000+0 -13733-3 0  9995", "line2": "2 66543  42.9999 118.8166 0001525 273.6925  56.6894 15.75062842  3131"}}, "geometry": {"type": "Point", "coordinates": [46.99515471030587, -41.054513636878816]}}, {"type": "Feature", "properties": {"norad_id": 66544, "name": "STARLINK-35728", "group": "last-30-days", "lat": -40.561728684578696, "lon": 49.44926995774893, "alt_km": 346.7429424737802, "timestamp": "2025-12-02T06:27:51.801984+00:00", "meta": {"OBJECT_NAME": "STARLINK-35728", "OBJECT_ID": "2025-265AE", "EPOCH": "2025-12-01T20:00:01.999008", "MEAN_MOTION": 15.75066704, "ECCENTRICITY": 0.0001577, "INCLINATION": 42.9998, "RA_OF_ASC_NODE": 118.8125, "ARG_OF_PERICENTER": 273.3129, "MEAN_ANOMALY": 59.001, "EPHEMERIS_TYPE": 0, "CLASSIFICATION_TYPE": "U", "NORAD_CAT_ID": 66544, "ELEMENT_SET_NO": 999, "REV_AT_EPOCH": 324, "BSTAR": -0.00024388, "MEAN_MOTION_DOT": -0.00037818, "MEAN_MOTION_DDOT": 0}, "tle": {"line1": "1 66544U 25265AE  25335.83335647 -.00037818  00000+0 -24388-3 0  9998", "line2": "2 66544  42.9998 118.8125 0001577 273.3129  59.0010 15.75066704  3246"}}, "geometry": {"type": "Point", "coordinates": [49.44926995774893, -40.561728684578696]}}, {"type": "Feature", "properties": {"norad_id": 66545, "name": "SHIJIAN-30A", "group": "last-30-days", "lat": -10.46730812965563, "lon": 13.540592352843328, "alt_km": 514.318058999077, "timestamp": "2025-12-02T06:27:51.801994+00:00", "meta": {"OBJECT_NAME": "SHIJIAN-30A", "OBJECT_ID": "2025-266A", "EPOCH": "2025-12-01T19:26:35.013408", "MEAN_MOTION": 15.15284098, "ECCENTRICITY": 0.0012734, "INCLINATION": 51.7992, "RA_OF_ASC_NODE": 24.0574, "ARG_OF_PERICENTER": 317.2402, "MEAN_ANOMALY": 42.7583, "EPHEMERIS_TYPE": 0, "CLASSIFICATION_TYPE": "U", "NORAD_CAT_ID": 66545, "ELEMENT_SET_NO": 999, "REV_AT_EPOCH": 192, "BSTAR": 0.00067083, "MEAN_MOTION_DOT": 0.00012521, "MEAN_MOTION_DDOT": 0}, "tle": {"line1": "1 66545U 25266A   25335.81012747  .00012521  00000+0  67083-3 0  9992", "line2": "2 66545  51.7992  24.0574 0012734 317.2402  42.7583 15.15284098  1923"}}, "geometry": {"type": "Point", "coordinates": [13.540592352843328, -10.46730812965563]}}, {"type": "Feature", "properties": {"norad_id": 66546, "name": "SHIJIAN-30B", "group": "last-30-days", "lat": -14.839884039194589, "lon": 9.872068822959154, "alt_km": 515.5918132495044, "timestamp": "2025-12-02T06:27:51.802009+00:00", "meta": {"OBJECT_NAME": "SHIJIAN-30B", "OBJECT_ID": "2025-266B", "EPOCH": "2025-12-01T19:28:05.927808", "MEAN_MOTION": 15.15338455, "ECCENTRICITY": 0.0010406, "INCLINATION": 51.7975, "RA_OF_ASC_NODE": 24.0627, "ARG_OF_PERICENTER": 320.1473, "MEAN_ANOMALY": 39.8738, "EPHEMERIS_TYPE": 0, "CLASSIFICATION_TYPE": "U", "NORAD_CAT_ID": 66546, "ELEMENT_SET_NO": 999, "REV_AT_EPOCH": 192, "BSTAR": 0.00077472, "MEAN_MOTION_DOT": 0.00014527, "MEAN_MOTION_DDOT": 0}, "tle": {"line1": "1 66546U 25266B   25335.81117972  .00014527  00000+0  77472-3 0  9990", "line2": "2 66546  51.7975  24.0627 0010406 320.1473  39.8738 15.15338455  1925"}}, "geometry": {"type": "Point", "coordinates": [9.872068822959154, -14.839884039194589]}}]}